NORAD_CAT_ID,OBJECT_NAME,OBJECT_TYPE,EPOCH,MEAN_MOTION,ECCENTRICITY,INCLINATION,RA_OF_ASC_NODE,ARG_OF_PERICENTER,MEAN_ANOMALY,BSTAR,MEAN_MOTION_DOT,MEAN_MOTION_DDOT,TLE_LINE0,TLE_LINE1,TLE_LINE2,SEMIMAJOR_AXIS,PERIOD,APOGEE,PERIGEE,DECAYED
51791.0,STARLINK-3602,PAYLOAD,2022-10-01 14:27:27,15.08858112,0.0002043,53.2166,223.4213,49.4518,310.6652,0.00049289,7.569e-05,0.0,0 STARLINK-3602,1 51791U 22017Z   22274.60239762  .00007569  00000-0  49289-3 0  9999,2 51791  53.2166 223.4213 0002043  49.4518 310.6652 15.08858112 34442,6917.825,95.436,541.1030000000002,538.2769999999998,0.0
51791.0,STARLINK-3602,PAYLOAD,2022-10-01 20:48:59,15.08860532,0.0002076,53.2166,222.2316,52.7772,307.3409,0.0003948,6.004e-05,0.0,0 STARLINK-3602,1 51791U 22017Z   22274.86735463  .00006004  00000-0  39480-3 0  9991,2 51791  53.2166 222.2316 0002076  52.7772 307.3409 15.08860532 34484,6917.818,95.436,541.119,538.246,0.0
51791.0,STARLINK-3602,PAYLOAD,2022-10-02 03:10:31,15.08850602,0.0002016,53.2164,221.0427,48.2516,311.8649,6.5033e-05,7.47e-06,0.0,0 STARLINK-3602,1 51791U 22017Z   22275.13231373  .00000747  00000-0  65033-4 0  9995,2 51791  53.2164 221.0427 0002016  48.2516 311.8649 15.08850602 34520,6917.848000000001,95.437,541.1080000000002,538.318,0.0
51791.0,STARLINK-3602,PAYLOAD,2022-10-02 06:21:18,15.08848265,0.0002153,53.2164,220.4483,49.4821,310.6358,-9.4058e-05,-1.785e-05,0.0,0 STARLINK-3602,1 51791U 22017Z   22275.26479199 -.00001785  00000-0 -94058-4 0  9993,2 51791  53.2164 220.4483 0002153  49.4821 310.6358 15.08848265 34547,6917.855,95.437,541.21,538.231,0.0
51791.0,STARLINK-3602,PAYLOAD,2022-10-03 04:36:42,15.08855451,0.0002009999999999,53.2167,216.2841,54.0269,306.091,0.00074192,0.00011544,0.0,0 STARLINK-3602,1 51791U 22017Z   22276.19215605  .00011544  00000-0  74192-3 0  9994,2 51791  53.2167 216.2841 0002010  54.0269 306.0910 15.08855451 34684,6917.833000000001,95.437,541.089,538.308,0.0
51791.0,STARLINK-3602,PAYLOAD,2022-10-03 12:33:37,15.08865587,0.0002008999999999,53.2169,214.7972,55.0736,305.0445,0.0012580999999999,0.00019806,0.0,0 STARLINK-3602,1 51791U 22017Z   22276.52335320  .00019806  00000-0  12581-2 0  9990,2 51791  53.2169 214.7972 0002009  55.0736 305.0445 15.08865587 34731,6917.802,95.436,541.057,538.2769999999998,0.0
51791.0,STARLINK-3602,PAYLOAD,2022-10-03 18:55:09,15.08877401,0.0001978,53.2173,213.6104,58.5751,301.5434,0.0014245999999999,0.00022481,0.0,0 STARLINK-3602,1 51791U 22017Z   22276.78830864  .00022481  00000-0  14246-2 0  9994,2 51791  53.2173 213.6104 0001978  58.5751 301.5434 15.08877401 34771,6917.766,95.435,540.999,538.263,0.0
51791.0,STARLINK-3602,PAYLOAD,2022-10-04 02:52:05,15.08869238,0.0001714,53.2162,212.1203,42.0455,318.0668,0.00095025,0.0001488,0.0,0 STARLINK-3602,1 51791U 22017Z   22277.11950521  .00014880  00000-0  95025-3 0  9994,2 51791  53.2162 212.1203 0001714  42.0455 318.0668 15.08869238 34827,6917.791,95.436,540.842,538.47,0.0
51791.0,STARLINK-3602,PAYLOAD,2022-10-04 12:24:23,15.0886517,0.0001704,53.2165,210.3378,46.7271,313.3863,0.00060671,9.388e-05,0.0,0 STARLINK-3602,1 51791U 22017Z   22277.51694195  .00009388  00000-0  60671-3 0  9996,2 51791  53.2165 210.3378 0001704  46.7271 313.3863 15.08865170 34881,6917.803000000001,95.436,540.847,538.49,0.0
51791.0,STARLINK-3602,PAYLOAD,2022-10-05 02:42:52,15.08838483,0.000178,53.2164,207.6607,51.8553,308.26,0.00013069,1.792e-05,0.0,0 STARLINK-3602,1 51791U 22017Z   22278.11310589  .00001792  00000-0  13069-3 0  9995,2 51791  53.2164 207.6607 0001780  51.8553 308.2600 15.08838483 34977,6917.885,95.438,540.981,538.519,0.0
51791.0,STARLINK-3602,PAYLOAD,2022-10-05 12:15:11,15.08842038,0.00018,53.2165,205.8778,49.4069,310.708,0.0005306,8.167e-05,0.0,0 STARLINK-3602,1 51791U 22017Z   22278.51054696  .00008167  00000-0  53060-3 0  9991,2 51791  53.2165 205.8778 0001800  49.4069 310.7080 15.08842038 35034,6917.874,95.437,540.984,538.494,0.0
51791.0,STARLINK-3602,PAYLOAD,2022-10-06 02:33:40,15.08824597,0.0001673,53.2165,203.2004,54.2358,305.879,-3.7664e-06,-3.48e-06,0.0,0 STARLINK-3602,1 51791U 22017Z   22279.10671509 -.00000348  00000-0 -37664-5 0  9994,2 51791  53.2165 203.2004 0001673  54.2358 305.8790 15.08824597 35124,6917.927,95.439,540.95,538.635,0.0
51791.0,STARLINK-3602,PAYLOAD,2022-10-06 12:05:59,15.08823297,0.0001723,53.2165,201.4169,54.8224,305.2929,-1.6984000000000002e-05,-5.58e-06,0.0,0 STARLINK-3602,1 51791U 22017Z   22279.50416113 -.00000558  00000-0 -16984-4 0  9990,2 51791  53.2165 201.4169 0001723  54.8224 305.2929 15.08823297 35180,6917.931,95.439,540.988,538.604,0.0
51791.0,STARLINK-3602,PAYLOAD,2022-10-06 21:38:18,15.08843383,0.000185,53.2173,199.6325,52.1382,307.9777,0.00043439,6.633e-05,0.0,0 STARLINK-3602,1 51791U 22017Z   22279.90159892  .00006633  00000-0  43439-3 0  9994,2 51791  53.2173 199.6325 0001850  52.1382 307.9777 15.08843383 35243,6917.87,95.437,541.015,538.455,0.0
51791.0,STARLINK-3602,PAYLOAD,2022-10-07 11:56:46,15.08850146,0.0001823,53.2175,196.9557,54.2125,305.9036,0.00073694,0.00011463,0.0,0 STARLINK-3602,1 51791U 22017Z   22280.49776092  .00011463  00000-0  73694-3 0  9990,2 51791  53.2175 196.9557 0001823  54.2125 305.9036 15.08850146 35331,6917.849,95.437,540.976,538.453,0.0
51791.0,STARLINK-3602,PAYLOAD,2022-10-08 00:39:51,15.08838271,0.0001821999999999,53.2167,194.5779,53.0229,307.093,0.00014723,2.056e-05,0.0,0 STARLINK-3602,1 51791U 22017Z   22281.02768399  .00002056  00000-0  14723-3 0  9997,2 51791  53.2167 194.5779 0001822  53.0229 307.0930 15.08838271 35413,6917.886,95.438,541.011,538.49,0.0
51791.0,STARLINK-3602,PAYLOAD,2022-10-08 11:47:34,15.08837695,0.0001829,53.217,192.497,53.4322,306.6838,0.00018002,2.578e-05,0.0,0 STARLINK-3602,1 51791U 22017Z   22281.49136721  .00002578  00000-0  18002-3 0  9999,2 51791  53.2170 192.4970 0001829  53.4322 306.6838 15.08837695 35480,6917.887,95.438,541.018,538.487,0.0
51791.0,STARLINK-3602,PAYLOAD,2022-10-09 03:41:24,15.08856064,0.0001829,53.2176,189.523,54.2655,305.8508,0.00064613,0.00010015,0.0,0 STARLINK-3602,1 51791U 22017Z   22282.15376120  .00010015  00000-0  64613-3 0  9996,2 51791  53.2176 189.5230 0001829  54.2655 305.8508 15.08856064 35587,6917.831,95.437,540.962,538.431,0.0
51791.0,STARLINK-3602,PAYLOAD,2022-10-09 21:10:39,15.08851199,0.000178,53.217,186.252,45.7939,314.3199,0.00031073,4.662e-05,0.0,0 STARLINK-3602,1 51791U 22017Z   22282.88239933  .00004662  00000-0  31073-3 0  9991,2 51791  53.2170 186.2520 0001780  45.7939 314.3199 15.08851199 35690,6917.846,95.437,540.943,538.48,0.0
51791.0,STARLINK-3602,PAYLOAD,2022-10-10 03:32:11,15.08842458,0.0001795,53.2175,185.0635,52.4223,307.6932,0.0001429,1.987e-05,0.0,0 STARLINK-3602,1 51791U 22017Z   22283.14736102  .00001987  00000-0  14290-3 0  9990,2 51791  53.2175 185.0635 0001795  52.4223 307.6932 15.08842458 35739,6917.873000000001,95.437,540.98,538.496,0.0
51791.0,STARLINK-3602,PAYLOAD,2022-10-10 17:50:40,15.08840571,0.0001789,53.2172,182.3872,51.08600000000001,309.0291,-4.305100000000001e-05,-9.73e-06,0.0,0 STARLINK-3602,1 51791U 22017Z   22283.74352110 -.00000973  00000-0 -43051-4 0  9993,2 51791  53.2172 182.3872 0001789  51.0860 309.0291 15.08840571 35822,6917.879,95.438,540.981,538.506,0.0
51791.0,STARLINK-3602,PAYLOAD,2022-10-11 03:22:59,15.08836519,0.0001679,53.2179,180.6036,50.4505,309.6635,2.2603e-05,7.2e-07,0.0,0 STARLINK-3602,1 51791U 22017Z   22284.14096832  .00000072  00000-0  22603-4 0  9992,2 51791  53.2179 180.6036 0001679  50.4505 309.6635 15.08836519 35880,6917.891,95.438,540.918,538.595,0.0
51791.0,STARLINK-3602,PAYLOAD,2022-10-11 17:41:28,15.08825418,0.0001742,53.2171,177.9266,49.3465,310.7678,-0.00018621,-3.249e-05,0.0,0 STARLINK-3602,1 51791U 22017Z   22284.73713386 -.00003249  00000-0 -18621-3 0  9992,2 51791  53.2171 177.9266 0001742  49.3465 310.7678 15.08825418 35975,6917.925,95.438,540.995,538.585,0.0
51791.0,STARLINK-3602,PAYLOAD,2022-10-12 09:35:19,15.08834945,0.0001747,53.2178,174.953,52.7011,307.414,0.00013631,1.882e-05,0.0,0 STARLINK-3602,1 51791U 22017Z   22285.39953410  .00001882  00000-0  13631-3 0  9994,2 51791  53.2178 174.9530 0001747  52.7011 307.4140 15.08834945 36077,6917.896,95.438,540.969,538.552,0.0
51791.0,STARLINK-3602,PAYLOAD,2022-10-12 17:32:15,15.08836566,0.000168,53.217,173.4664,59.6695,300.4463,0.00017226,2.454e-05,0.0,0 STARLINK-3602,1 51791U 22017Z   22285.73073540  .00002454  00000-0  17226-3 0  9999,2 51791  53.2170 173.4664 0001680  59.6695 300.4463 15.08836566 36129,6917.891,95.438,540.918,538.594,0.0
51791.0,STARLINK-3602,PAYLOAD,2022-10-12 23:53:48,15.08824821,0.000177,53.2173,172.2784,47.9445,312.1698,1.773e-05,-6e-08,0.0,0 STARLINK-3602,1 51791U 22017Z   22285.99570353 -.00000006  00000-0  17730-4 0  9994,2 51791  53.2173 172.2784 0001770  47.9445 312.1698 15.08824821 36160,6917.927,95.439,541.016,538.567,0.0
51791.0,STARLINK-3602,PAYLOAD,2022-10-13 09:26:07,15.08831129,0.0001927,53.2174,170.49400000000003,51.3844,308.732,0.00011048,1.47e-05,0.0,0 STARLINK-3602,1 51791U 22017Z   22286.39314411  .00001470  00000-0  11048-3 0  9990,2 51791  53.2174 170.4940 0001927  51.3844 308.7320 15.08831129 36220,6917.908,95.438,541.106,538.439,0.0
51791.0,STARLINK-3602,PAYLOAD,2022-10-13 18:58:25,15.08844721,0.0001718,53.2161,168.7086,49.4467,310.6674,0.00029732,4.448e-05,0.0,0 STARLINK-3602,1 51791U 22017Z   22286.79057848  .00004448  00000-0  29732-3 0  9999,2 51791  53.2161 168.7086 0001718  49.4467 310.6674 15.08844721 36286,6917.866,95.437,540.919,538.5419999999998,0.0
51791.0,STARLINK-3602,PAYLOAD,2022-10-14 09:16:54,15.08848343,0.0001837,53.2164,166.0325,52.4103,307.7056,0.00021282,3.101e-05,0.0,0 STARLINK-3602,1 51791U 22017Z   22287.38673741  .00003101  00000-0  21282-3 0  9998,2 51791  53.2164 166.0325 0001837  52.4103 307.7056 15.08848343 36374,6917.855,95.437,540.991,538.4490000000002,0.0
